[{"OBJECT_NAME":"OBJECT D","OBJECT_ID":"2024-085D","EPOCH":"2026-03-09T22:53:13.410816","MEAN_MOTION":15.33413141,"ECCENTRICITY":0.00152451,"INCLINATION":97.3312,"RA_OF_ASC_NODE":145.3953,"ARG_OF_PERICENTER":54.9672,"MEAN_ANOMALY":305.2998,"EPHEMERIS_TYPE":0,"CLASSIFICATION_TYPE":"U","NORAD_CAT_ID":59680,"ELEMENT_SET_NO":999,"REV_AT_EPOCH":10244,"BSTAR":0.00049264705,"MEAN_MOTION_DOT":0.00015903,"MEAN_MOTION_DDOT":0},{"OBJECT_NAME":"STARLINK-35951","OBJECT_ID":"2025-271C","EPOCH":"2026-03-09T11:45:57.790080","MEAN_MOTION":15.30177372,"ECCENTRICITY":0.00011682,"INCLINATION":53.1573,"RA_OF_ASC_NODE":141.0365,"ARG_OF_PERICENTER":103.5033,"MEAN_ANOMALY":256.6098,"EPHEMERIS_TYPE":0,"CLASSIFICATION_TYPE":"U","NORAD_CAT_ID":66619,"ELEMENT_SET_NO":999,"REV_AT_EPOCH":1753,"BSTAR":0.00062166057,"MEAN_MOTION_DOT":0.00018085,"MEAN_MOTION_DDOT":0}]
